STARLINK-4171           
1 52878U 22062BA  22181.25001157 -.00754600  00000+0 -46241-2 0  9999
2 52878  53.2175 341.9223 0000864 348.1690 359.4465 15.78601464  2503
STARLINK-4139           
1 52879U 22062BB  22180.91667824 -.00743151  00000+0 -44262-2 0  9991
2 52879  53.2173 343.5848 0002477 261.6177 352.0453 15.79182226  1308
STARLINK-4186           
1 52880U 22062BC  22180.91667824 -.00743835  00000+0 -44316-2 0  9992
2 52880  53.2173 343.5852 0003092 255.3060 357.9122 15.79171063  1304
STARLINK-4192           
1 52881U 22062BD  22180.91667824 -.00742069  00000+0 -44235-2 0  9991
2 52881  53.2173 343.5867 0002743 289.1309 323.6492 15.79158254  1301
STARLINK-4181           
1 52882U 22062BE  22180.91667824 -.00743067  00000+0 -44236-2 0  9992
2 52882  53.2173 343.5834 0002475 261.9865 352.1363 15.79192437  1308
FALCON 9 DEB            
1 52883U 22062BF  22180.89643862  .00736166  11585-4  60897-3 0  9993
2 52883  53.2173 342.4860 0050644  83.7693 276.9109 16.10278923  1971
FALCON 9 DEB            
1 52884U 22062BG  22180.89204672  .00691387  11593-4  57302-3 0  9997
2 52884  53.2127 342.4484 0046014  85.2658 275.3631 16.10755822  1978
FALCON 9 DEB            
1 52885U 22062BH  22180.75806034  .00734492  11633-4  55664-3 0  9992
2 52885  53.2155 343.0242 0043536  77.2141 283.3756 16.12235622  1951
FALCON 9 DEB            
1 52886U 22062BJ  22180.75617329  .00839185  11656-4  59714-3 0  9990
2 52886  53.2170 343.0132 0043602  78.1940 282.3983 16.13072604  1959
SARAH-1                 
1 52887U 22063A   22174.76914807  .00057931  00000+0  16917-1 0  9990
2 52887  98.3930 181.8659 0001741 114.3380 245.7128 14.43706701  1277
GLOBALSTAR FM15         
1 52888U 22064A   22180.71099862 -.00000128  00000+0  00000+0 0  9990
2 52888  51.9757 193.5755 0009477 336.6361  23.4097 13.37542038  1379
2022-065A               
1 52894U 22065A   22181.05514595 -.00003412  00000+0 -74067-3 0  9999
2 52894  98.0183 332.0442 0009582 210.1656 149.8579 14.57539445  1272
2022-065B               
1 52895U 22065B   22180.84580598 -.00000024  00000+0  44342-5 0  9992
2 52895  98.0200 331.8513 0007221 224.4288 135.6347 14.58135837  1258
KSLV-II R/B             
1 52896U 22065C   22180.95728698  .00002757  00000+0  55269-3 0  9992
2 52896  98.0695 332.0632 0004435  52.8334 307.3268 14.62507083  1263
STEP CUBE LAB-II        
1 52897U 22065D   22181.26065231  .00004354  00000+0  95141-3 0  9993
2 52897  98.0184 332.2458 0008479 226.2565 133.8558 14.58252174   132
TIANXING-1              
1 52901U 22066A   22181.28381963  .00122017  75608-5  31115-3 0  9995
2 52901  96.7429 225.8257 0011514 262.3313 130.7753 15.95306871  1304
CMS-02 (GSAT 24)        
1 52903U 22067A   22181.16993737 -.00000282  00000+0  00000+0 0  9996
2 52903   0.1002 269.5841 0027405 333.4808 184.1544  1.00746335   103
MEASAT 3D               
1 52904U 22067B   22180.85455597 -.00000274  00000+0  00000+0 0  9990
2 52904   0.1009 281.3985 0011439 301.9189  92.6146  1.00551554   135
ARIANE 5 DEB [SYLDA]    
1 52905U 22067C   22180.69628688  .00015301  00000+0  53190-2 0  9993
2 52905   6.0242  62.8106 7275020 183.5945 164.1739  2.28327633   151
ARIANE 5 R/B            
1 52906U 22067D   22180.67429379  .00002507  00000+0  64925-3 0  9991
2 52906   6.1808  60.8864 7278743 185.3494 156.6852  2.28652064   166
YAOGAN-35 D             
1 52907U 22068A   22181.22944564  .00005159  00000+0  20529-3 0  9991
2 52907  34.9968 237.4097 0009447 339.8816  83.3708 15.24595937  1086
YAOGAN-35 E             
1 52908U 22068B   22181.36591313 -.00003411  00000+0 -13211-3 0  9998
2 52908  34.9944 236.5274 0008610 345.5788 116.6114 15.24925965  1079
YAOGAN-35 F             
1 52909U 22068C   22181.29760647  .00005636  00000+0  22752-3 0  9998
2 52909  34.9951 237.0102 0008217 324.1569 101.2501 15.24105919  1100
CZ-2D R/B               
1 52910U 22068D   22181.21883812  .00014506  00000+0  57575-3 0  9999
2 52910  34.9987 237.4907 0009425 332.7048  27.2830 15.24484543  1056
CZ-2D DEB               
1 52911U 22068E   22180.56270424  .00013917  00000+0  54818-3 0  9998
2 52911  34.9987 241.6084 0009954 335.2599  24.7626 15.24741008   951
GAOFEN 12-3             
1 52912U 22069A   22181.25833313 -.00178350  00000+0 -23896-1 0  9994
2 52912  97.9803  68.9335 0002901  31.2392 328.0528 14.80533761   391
CZ-4C R/B               
1 52913U 22069B   22180.95873636  .00000715  00000+0  49223-4 0  9995
2 52913  97.9732  68.6887 0074036  38.3242 322.3211 15.07276420   349
CAPSTONE & PHOTON R/B   
1 52914U 22070A   22180.71912260 -.00001239  38900-5  00000+0 0  9993
2 52914  39.1136 326.1744 0564856 338.3115  19.4579 14.74687642   195
2022-071A               
1 52933U 22071A   22181.34777341 -.00000051  00000+0  00000+0 0  9999
2 52933  16.5407  66.7138 7259232 179.2284  11.3958  2.28675783    06
ATLAS CENTAUR 2         
1 00694U 63047A   22180.52260265  .00000559  00000+0  59311-4 0  9991
2 00694  30.3549 123.0890 0581938 152.8411 210.3901 14.03565240941004
THOR AGENA D R/B        
1 00733U 64002A   22181.04607091  .00000064  00000+0  41039-4 0  9996
2 00733  98.9895 110.7110 0032861 225.6620 134.1869 14.32544530 45559
SL-3 R/B                
1 00877U 64053B   22181.11014218 -.00000004  00000+0  23817-4 0  9991
2 00877  65.0789 318.4980 0050237 114.5726 246.0620 14.59548012 69863
SL-8 R/B                
1 02802U 67045B   22180.87248742  .00000080  00000+0  30939-4 0  9994
2 02802  74.0129 343.3069 0067076 315.0358  44.5378 14.43928973894277
SL-8 R/B                
1 03230U 68040B   22181.20908344  .00000607  00000+0  64185-4 0  9990
2 03230  74.0344 160.1897 0030189 338.9522  21.0415 14.91448387909524
OAO 2                   
1 03597U 68110A   22180.40532170  .00000077  00000+0  26559-4 0  9999
2 03597  34.9924 229.8859 0005771 195.5104 164.5410 14.45967970823641
ISIS 1                  
1 03669U 69009A   22180.29830008  .00000046  00000+0  35168-4 0  9997
2 03669  88.4211 304.3492 1710430 291.3427  51.3869 11.29550271196134
SERT 2                  
1 04327U 70009A   22180.64840219 -.00000006  00000+0  47347-4 0  9994
2 04327  99.1237 188.7239 0005404  31.3305  76.8911 13.58521623596700
SL-3 R/B                
1 04814U 70113B   22181.15762776  .00004431  00000+0  10716-3 0  9993
2 04814  81.1399 342.6439 0020735 226.6796 133.2718 15.40659672816663
SL-3 R/B                
1 05118U 71028B   22181.14829614  .00001492  00000+0  73353-4 0  9992
2 05118  81.2537 202.6231 0043854 234.2093 125.5057 15.16557742782562
ASTEX 1                 
1 05560U 71089A   22180.70279093  .00000200  00000+0  53812-4 0  9995
2 05560  92.7242  76.1733 0014599 318.7988  41.2113 14.48304149666900
SL-8 R/B                
1 05730U 71119B   22181.14345767  .00005879  00000+0  36442-3 0  9995
2 05730  73.8934 115.4143 0671653 354.2237   5.1411 14.08647018463794
COSMOS 482 DESCENT CRAFT
1 06073U 72023E   22180.85717355  .00051742  67469-5  17077-3 0  9995
2 06073  52.0262 312.9977 1150464 154.0986 212.2469 13.55479260600843
OAO 3 (COPERNICUS)      
1 06153U 72065A   22181.04397050  .00000102  00000+0  26304-4 0  9998
2 06153  35.0078  48.5367 0007413 301.3969 207.4443 14.58103972649394
ATLAS CENTAUR R/B       
1 06155U 72065B   22180.86952243  .00000296  00000+0  49433-4 0  9992
2 06155  35.0032 251.6119 0037977 234.0196 125.6978 14.72004704642059
SL-8 R/B                
1 08459U 75112B   22180.87182019  .00000024  00000+0  16820-4 0  9997
2 08459  74.0623 337.3195 0015420  43.5175 316.7192 14.36932161438053
SL-3 R/B                
1 10114U 77057B   22180.86203134  .00001232  00000+0  61961-4 0  9997
2 10114  97.4116 320.3634 0013758  25.4308 334.7600 15.19024016462187
SEASAT 1                
1 10967U 78064A   22180.88160245  .00000001  00000+0  40348-4 0  9998
2 10967 107.9933 182.1137 0002363 250.7878 109.3011 14.44024973311672
METEOR 1-29             
1 11251U 79005A   22180.89931557  .00005386  00000+0  11763-3 0  9993
2 11251  97.7288 152.2711 0013007 352.1871   7.9172 15.44594232922839
SL-14 R/B               
1 11267U 79011B   22180.82670162  .00000228  00000+0  21412-4 0  9995
2 11267  82.5256 293.2777 0015628 230.7461 129.2371 14.89199928327860
SL-8 R/B                
1 11574U 79089B   22181.09423992  .00000086  00000+0  34876-4 0  9998
2 11574  74.0704  64.1894 0016657 222.6428 137.3435 14.40904738241974
SL-14 R/B               
1 11672U 80005B   22180.89761098  .00000216  00000+0  20661-4 0  9998
2 11672  82.5153 143.5775 0015958 337.5476  22.5041 14.88225342275713
SL-8 R/B                
1 12139U 81003B   22181.15797155  .00004339  00000+0  19586-3 0  9992
2 12139  82.9480  46.0297 0441171   2.0729 358.2167 14.62542075114739
SL-3 R/B                
1 12465U 81046B   22180.86141258  .00001090  00000+0  54520-4 0  9994
2 12465  81.2423  69.8108 0031768 292.4212  67.3652 15.16163930232695
METEOR PRIRODA          
1 12585U 81065A   22180.74272692  .00002213  00000+0  93390-4 0  9998
2 12585  97.5824 185.7655 0015200  93.5761 266.7214 15.24286141236041
SL-3 R/B                
1 12904U 81103B   22180.87208776  .00000497  00000+0  31489-4 0  9995
2 12904  81.1762 333.9798 0028933 129.3872 230.9921 15.06812408769296
SL-3 R/B                
1 13068U 82013B   22180.85633532  .00000268  00000+0  15596-4 0  9995
2 13068  81.2042 281.8043 0019575   9.4051 350.7536 15.08430704200237
SL-3 R/B                
1 13154U 82039B   22181.15533469  .00000570  00000+0  43813-4 0  9990
2 13154  81.1838 312.9643 0040352  62.0831 298.4465 14.99544390179189
SL-3 R/B                
1 13403U 82079B   22180.87530783  .00001603  00000+0  10065-3 0  9995
2 13403  81.1702 321.4490 0033136 331.4529  28.4879 15.08303604173456
COSMOS 1408             
1 13552U 82092A   22180.67944662  .00003293  00000+0  99687-4 0  9993
2 13552  82.5727 256.4434 0027437  64.9111 295.4974 15.33395258 34610
